[Satellite]
VERSION=1.1
NAME=AO-95
NICKNAME=AO-95
TLE1=1 43770U 18099N   25178.58589358  .00006983  00000-0  35115-3 0  9996
TLE2=2 43770  97.4902 236.4745 0011766 143.9220 216.2810 15.17493523359284
STATUS=0
